[{"OBJECT_NAME":"STARLINK-30312","OBJECT_ID":"2023-122K","EPOCH":"2026-03-09T10:33:28.264608","MEAN_MOTION":15.26737903,"ECCENTRICITY":0.00016931,"INCLINATION":43.003,"RA_OF_ASC_NODE":93.4926,"ARG_OF_PERICENTER":243.6138,"MEAN_ANOMALY":116.4539,"EPHEMERIS_TYPE":0,"CLASSIFICATION_TYPE":"U","NORAD_CAT_ID":57641,"ELEMENT_SET_NO":999,"REV_AT_EPOCH":14217,"BSTAR":7.0281586e-5,"MEAN_MOTION_DOT":1.626e-5,"MEAN_MOTION_DDOT":0},{"OBJECT_NAME":"TRANSPORTER-12 OBJECT BA","OBJECT_ID":"2025-009BA","EPOCH":"2026-03-09T16:49:42.568896","MEAN_MOTION":15.27214003,"ECCENTRICITY":4.03e-5,"INCLINATION":97.3985,"RA_OF_ASC_NODE":151.139,"ARG_OF_PERICENTER":234.6623,"MEAN_ANOMALY":125.4579,"EPHEMERIS_TYPE":0,"CLASSIFICATION_TYPE":"U","NORAD_CAT_ID":62657,"ELEMENT_SET_NO":999,"REV_AT_EPOCH":6373,"BSTAR":0.00042732654,"MEAN_MOTION_DOT":0.0001133,"MEAN_MOTION_DDOT":0}]
